{
  "norad_id": 49112,
  "name": "RSW-01",
  "history": [
    {
      "epoch": "2026-03-28T21:03:39.307392Z",
      "apogee_km": 1108.7648667417416,
      "perigee_km": 1088.551351164686,
      "latitude_deg": -2.829411459718602e-05,
      "longitude_deg": 44.26814032166135,
      "height_km": 1097.9741267291747,
      "semi_major_axis_km": 7476.7951089532135,
      "eccentricity": 0.00135175,
      "inclination_deg": 86.4154,
      "raan_deg": 186.4736,
      "arg_perigee_deg": 290.9293,
      "mean_anomaly_deg": 69.0404,
      "mean_motion_rev_day": 13.42856305
    },
    {
      "epoch": "2026-03-29T06:00:08.138016Z",
      "apogee_km": 1108.7716834952316,
      "perigee_km": 1088.5439627807136,
      "latitude_deg": 4.950828247925689e-05,
      "longitude_deg": -90.35209021125026,
      "height_km": 1098.1608406031983,
      "semi_major_axis_km": 7476.794823137972,
      "eccentricity": 0.0013527,
      "inclination_deg": 86.4154,
      "raan_deg": 186.3407,
      "arg_perigee_deg": 289.784,
      "mean_anomaly_deg": 70.1846,
      "mean_motion_rev_day": 13.42856382
    },
    {
      "epoch": "2026-03-30T05:14:59.064288Z",
      "apogee_km": 1108.7533895809765,
      "perigee_km": 1088.552598375246,
      "latitude_deg": 4.5358446737814474e-05,
      "longitude_deg": -80.36432269487963,
      "height_km": 1098.6741109614154,
      "semi_major_axis_km": 7476.789993978111,
      "eccentricity": 0.0013509,
      "inclination_deg": 86.4156,
      "raan_deg": 185.9954,
      "arg_perigee_deg": 286.7163,
      "mean_anomaly_deg": 73.2499,
      "mean_motion_rev_day": 13.42857683
    },
    {
      "epoch": "2026-03-30T07:02:16.843200Z",
      "apogee_km": 1108.7475852695743,
      "perigee_km": 1088.559204452794,
      "latitude_deg": 4.4311782758742965e-06,
      "longitude_deg": -107.28834567748535,
      "height_km": 1098.7092357350843,
      "semi_major_axis_km": 7476.790394861184,
      "eccentricity": 0.00135007,
      "inclination_deg": 86.4156,
      "raan_deg": 185.9689,
      "arg_perigee_deg": 286.5212,
      "mean_anomaly_deg": 73.4449,
      "mean_motion_rev_day": 13.42857575
    },
    {
      "epoch": "2026-03-30T14:11:27.913920Z",
      "apogee_km": 1108.7349735158923,
      "perigee_km": 1088.5712668481801,
      "latitude_deg": -2.626306303966216e-05,
      "longitude_deg": 145.01555839425328,
      "height_km": 1098.8835065221804,
      "semi_major_axis_km": 7476.790120182036,
      "eccentricity": 0.00134842,
      "inclination_deg": 86.4158,
      "raan_deg": 185.8627,
      "arg_perigee_deg": 285.51,
      "mean_anomaly_deg": 74.4555,
      "mean_motion_rev_day": 13.42857649
    },
    {
      "epoch": "2026-03-30T21:20:38.993280Z",
      "apogee_km": 1108.740895169185,
      "perigee_km": 1088.5679138165506,
      "latitude_deg": 5.668289694101818e-06,
      "longitude_deg": 37.319330270086844,
      "height_km": 1099.0450487641963,
      "semi_major_axis_km": 7476.7914044928675,
      "eccentricity": 0.00134904,
      "inclination_deg": 86.4157,
      "raan_deg": 185.7564,
      "arg_perigee_deg": 284.5601,
      "mean_anomaly_deg": 75.4047,
      "mean_motion_rev_day": 13.42857303
    },
    {
      "epoch": "2026-03-31T20:35:30.035328Z",
      "apogee_km": 1108.7233364909916,
      "perigee_km": 1088.5943067799844,
      "latitude_deg": 6.054551591541017e-05,
      "longitude_deg": 47.30681844261817,
      "height_km": 1099.5877565286323,
      "semi_major_axis_km": 7476.795821635488,
      "eccentricity": 0.0013461,
      "inclination_deg": 86.416,
      "raan_deg": 185.4113,
      "arg_perigee_deg": 281.4472,
      "mean_anomaly_deg": 78.5161,
      "mean_motion_rev_day": 13.42856113
    },
    {
      "epoch": "2026-04-01T19:50:20.993568Z",
      "apogee_km": 1108.7218955127537,
      "perigee_km": 1088.5898829791695,
      "latitude_deg": 3.0163786021773134e-06,
      "longitude_deg": 57.294449653011036,
      "height_km": 1100.1167854260061,
      "semi_major_axis_km": 7476.792889245961,
      "eccentricity": 0.0013463,
      "inclination_deg": 86.4164,
      "raan_deg": 185.066,
      "arg_perigee_deg": 278.3716,
      "mean_anomaly_deg": 81.5902,
      "mean_motion_rev_day": 13.42856903
    },
    {
      "epoch": "2026-04-02T19:05:11.951808Z",
      "apogee_km": 1108.7187876152166,
      "perigee_km": 1088.5882767863204,
      "latitude_deg": -1.5504894840333508e-05,
      "longitude_deg": 67.28198284471287,
      "height_km": 1100.6596542775267,
      "semi_major_axis_km": 7476.790532200768,
      "eccentricity": 0.0013462,
      "inclination_deg": 86.4165,
      "raan_deg": 184.7206,
      "arg_perigee_deg": 275.2465,
      "mean_anomaly_deg": 84.7143,
      "mean_motion_rev_day": 13.42857538
    },
    {
      "epoch": "2026-04-02T22:39:47.502720Z",
      "apogee_km": 1108.7170286327828,
      "perigee_km": 1088.5907039073227,
      "latitude_deg": -4.7419060394953186e-05,
      "longitude_deg": 13.433868802975207,
      "height_km": 1100.73484414863,
      "semi_major_axis_km": 7476.790866270053,
      "eccentricity": 0.00134592,
      "inclination_deg": 86.4165,
      "raan_deg": 184.6675,
      "arg_perigee_deg": 274.8198,
      "mean_anomaly_deg": 85.1409,
      "mean_motion_rev_day": 13.42857448
    },
    {
      "epoch": "2026-04-03T20:07:20.752032Z",
      "apogee_km": 1108.7123832399357,
      "perigee_km": 1088.6013031604953,
      "latitude_deg": -6.214074607631851e-06,
      "longitude_deg": 50.345133042505886,
      "height_km": 1101.252673588102,
      "semi_major_axis_km": 7476.793843200215,
      "eccentricity": 0.0013449,
      "inclination_deg": 86.4165,
      "raan_deg": 184.3486,
      "arg_perigee_deg": 271.885,
      "mean_anomaly_deg": 88.0754,
      "mean_motion_rev_day": 13.42856646
    },
    {
      "epoch": "2026-04-04T06:51:07.321824Z",
      "apogee_km": 1108.7261813435252,
      "perigee_km": 1088.5811651609547,
      "latitude_deg": -7.218754041634834e-05,
      "longitude_deg": -111.19896127738014,
      "height_km": 1101.4822529530488,
      "semi_major_axis_km": 7476.79067325224,
      "eccentricity": 0.00134717,
      "inclination_deg": 86.4165,
      "raan_deg": 184.1892,
      "arg_perigee_deg": 270.5577,
      "mean_anomaly_deg": 89.4023,
      "mean_motion_rev_day": 13.428575
    },
    {
      "epoch": "2026-04-05T15:02:27.123648Z",
      "apogee_km": 1108.7233225951804,
      "perigee_km": 1088.582346139362,
      "latitude_deg": 5.696354390406092e-05,
      "longitude_deg": 124.16858893576416,
      "height_km": 1102.2493131476172,
      "semi_major_axis_km": 7476.789834367271,
      "eccentricity": 0.0013469,
      "inclination_deg": 86.4161,
      "raan_deg": 183.7112,
      "arg_perigee_deg": 266.187,
      "mean_anomaly_deg": 93.7735,
      "mean_motion_rev_day": 13.42857726
    },
    {
      "epoch": "2026-04-05T20:24:20.438784Z",
      "apogee_km": 1108.727160760076,
      "perigee_km": 1088.5802005919259,
      "latitude_deg": -3.1978905366243216e-05,
      "longitude_deg": 43.396311685290904,
      "height_km": 1102.3701997307553,
      "semi_major_axis_km": 7476.790680676001,
      "eccentricity": 0.0013473,
      "inclination_deg": 86.4161,
      "raan_deg": 183.6314,
      "arg_perigee_deg": 265.5037,
      "mean_anomaly_deg": 94.4568,
      "mean_motion_rev_day": 13.42857498
    },
    {
      "epoch": "2026-04-06T05:20:49.261632Z",
      "apogee_km": 1108.7394269982742,
      "perigee_km": 1088.5664496015452,
      "latitude_deg": -1.0721969565605583e-05,
      "longitude_deg": -91.22389078372103,
      "height_km": 1102.5732945137358,
      "semi_major_axis_km": 7476.789938299909,
      "eccentricity": 0.00134904,
      "inclination_deg": 86.416,
      "raan_deg": 183.4985,
      "arg_perigee_deg": 264.3473,
      "mean_anomaly_deg": 95.6133,
      "mean_motion_rev_day": 13.42857698
    },
    {
      "epoch": "2026-04-07T15:19:26.807808Z",
      "apogee_km": 1108.7475501598556,
      "perigee_km": 1088.5520013997966,
      "latitude_deg": -3.05429831139553e-05,
      "longitude_deg": 117.21967202401345,
      "height_km": 1103.3621120571272,
      "semi_major_axis_km": 7476.786775779826,
      "eccentricity": 0.00135055,
      "inclination_deg": 86.4156,
      "raan_deg": 182.9939,
      "arg_perigee_deg": 259.8167,
      "mean_anomaly_deg": 100.1454,
      "mean_motion_rev_day": 13.4285855
    },
    {
      "epoch": "2026-04-07T20:41:20.099616Z",
      "apogee_km": 1108.7594148123735,
      "perigee_km": 1088.539193930831,
      "latitude_deg": 6.274645625781602e-05,
      "longitude_deg": 36.44750334062814,
      "height_km": 1103.5008043077778,
      "semi_major_axis_km": 7476.7863043716025,
      "eccentricity": 0.0013522,
      "inclination_deg": 86.4156,
      "raan_deg": 182.9141,
      "arg_perigee_deg": 259.0272,
      "mean_anomaly_deg": 100.9352,
      "mean_motion_rev_day": 13.42858677
    },
    {
      "epoch": "2026-04-08T14:34:17.808384Z",
      "apogee_km": 1108.7784446910327,
      "perigee_km": 1088.5274096375097,
      "latitude_deg": 3.825129385295346e-05,
      "longitude_deg": 127.20713007038276,
      "height_km": 1103.9171168467562,
      "semi_major_axis_km": 7476.789927164271,
      "eccentricity": 0.00135426,
      "inclination_deg": 86.4153,
      "raan_deg": 182.6486,
      "arg_perigee_deg": 256.6559,
      "mean_anomaly_deg": 103.3076,
      "mean_motion_rev_day": 13.42857701
    },
    {
      "epoch": "2026-04-09T19:11:02.068800Z",
      "apogee_km": 1108.7975935845034,
      "perigee_km": 1088.5040960161477,
      "latitude_deg": -6.083286308413754e-05,
      "longitude_deg": 56.42243677307546,
      "height_km": 1104.5476712596844,
      "semi_major_axis_km": 7476.787844800326,
      "eccentricity": 0.0013571,
      "inclination_deg": 86.4151,
      "raan_deg": 182.2234,
      "arg_perigee_deg": 252.9837,
      "mean_anomaly_deg": 106.982,
      "mean_motion_rev_day": 13.42858262
    }
  ]
}